COSMOS 2361             
1 25590U 98076A   26065.53623764  .00000071  00000+0  59598-4 0  9993
2 25590  82.9309 282.1230 0032230  34.6700 339.3390 13.73227141362611
COSMOS 2378             
1 26818U 01023A   26065.61182553  .00000071  00000+0  59620-4 0  9994
2 26818  82.9255 297.5504 0032493 335.7101  43.0058 13.74150768240751
COSMOS 2389             
1 27436U 02026A   26065.43684762  .00000067  00000+0  53548-4 0  9992
2 27436  82.9468 245.0236 0046250 184.8857 200.4725 13.75164151192995
COSMOS 2398             
1 27818U 03023A   26065.86205775  .00000067  00000+0  57187-4 0  9997
2 27818  82.9488 210.7013 0030339 237.8494 286.5804 13.72395056139700
COSMOS 2407             
1 28380U 04028A   26065.34522871  .00000097  00000+0  82845-4 0  9992
2 28380  82.9637 151.0015 0039448 178.0519 250.8376 13.76324648 85738
COSMOS 2414             
1 28521U 05002A   26065.59027047  .00000114  00000+0  82624-4 0  9999
2 28521  82.9486 121.2629 0038690 261.5305  98.1473 13.87915100 69583
COSMOS 2429             
1 32052U 07038A   26065.83117402  .00000063  00000+0  49306-4 0  9999
2 32052  82.9771 281.3294 0038779 159.4933 200.7791 13.75157911927582
COSMOS 2454             
1 35635U 09039A   26065.18257603  .00000085  00000+0  56225-4 0  9990
2 35635  82.9531 105.3928 0018954 189.5591 232.2240 13.89940793843097
COSMOS 2463             
1 36519U 10017A   26065.27614148  .00000081  00000+0  72199-4 0  9995
2 36519  82.9636 325.3388 0037313  56.7201  62.6131 13.71657616793821
