[{"OBJECT_NAME":"COSMOS 2361","OBJECT_ID":"1998-076A","EPOCH":"2026-03-06T12:52:10.932096","MEAN_MOTION":13.73227141,"ECCENTRICITY":0.00322307,"INCLINATION":82.9309,"RA_OF_ASC_NODE":282.123,"ARG_OF_PERICENTER":34.67,"MEAN_ANOMALY":339.339,"EPHEMERIS_TYPE":0,"CLASSIFICATION_TYPE":"U","NORAD_CAT_ID":25590,"ELEMENT_SET_NO":999,"REV_AT_EPOCH":36261,"BSTAR":5.9597603e-5,"MEAN_MOTION_DOT":7.1e-7,"MEAN_MOTION_DDOT":0},{"OBJECT_NAME":"COSMOS 2378","OBJECT_ID":"2001-023A","EPOCH":"2026-03-06T14:41:01.725792","MEAN_MOTION":13.74150768,"ECCENTRICITY":0.00324932,"INCLINATION":82.9255,"RA_OF_ASC_NODE":297.5504,"ARG_OF_PERICENTER":335.7101,"MEAN_ANOMALY":43.0058,"EPHEMERIS_TYPE":0,"CLASSIFICATION_TYPE":"U","NORAD_CAT_ID":26818,"ELEMENT_SET_NO":999,"REV_AT_EPOCH":24075,"BSTAR":5.9619652e-5,"MEAN_MOTION_DOT":7.1e-7,"MEAN_MOTION_DDOT":0},{"OBJECT_NAME":"COSMOS 2389","OBJECT_ID":"2002-026A","EPOCH":"2026-03-06T10:29:03.634368","MEAN_MOTION":13.75164151,"ECCENTRICITY":0.00462503,"INCLINATION":82.9468,"RA_OF_ASC_NODE":245.0236,"ARG_OF_PERICENTER":184.8857,"MEAN_ANOMALY":200.4725,"EPHEMERIS_TYPE":0,"CLASSIFICATION_TYPE":"U","NORAD_CAT_ID":27436,"ELEMENT_SET_NO":999,"REV_AT_EPOCH":19299,"BSTAR":5.3547808e-5,"MEAN_MOTION_DOT":6.7e-7,"MEAN_MOTION_DDOT":0},{"OBJECT_NAME":"COSMOS 2398","OBJECT_ID":"2003-023A","EPOCH":"2026-03-06T20:41:21.789600","MEAN_MOTION":13.72395056,"ECCENTRICITY":0.0030339,"INCLINATION":82.9488,"RA_OF_ASC_NODE":210.7013,"ARG_OF_PERICENTER":237.8494,"MEAN_ANOMALY":286.5804,"EPHEMERIS_TYPE":0,"CLASSIFICATION_TYPE":"U","NORAD_CAT_ID":27818,"ELEMENT_SET_NO":999,"REV_AT_EPOCH":13970,"BSTAR":5.7187e-5,"MEAN_MOTION_DOT":6.7e-7,"MEAN_MOTION_DDOT":0},{"OBJECT_NAME":"COSMOS 2407","OBJECT_ID":"2004-028A","EPOCH":"2026-03-06T08:17:07.760544","MEAN_MOTION":13.76324648,"ECCENTRICITY":0.00394489,"INCLINATION":82.9637,"RA_OF_ASC_NODE":151.0015,"ARG_OF_PERICENTER":178.0519,"MEAN_ANOMALY":250.8376,"EPHEMERIS_TYPE":0,"CLASSIFICATION_TYPE":"U","NORAD_CAT_ID":28380,"ELEMENT_SET_NO":999,"REV_AT_EPOCH":8573,"BSTAR":8.2844784e-5,"MEAN_MOTION_DOT":9.7e-7,"MEAN_MOTION_DDOT":0},{"OBJECT_NAME":"COSMOS 2414","OBJECT_ID":"2005-002A","EPOCH":"2026-03-06T14:09:59.368608","MEAN_MOTION":13.879151,"ECCENTRICITY":0.00386903,"INCLINATION":82.9486,"RA_OF_ASC_NODE":121.2629,"ARG_OF_PERICENTER":261.5305,"MEAN_ANOMALY":98.1473,"EPHEMERIS_TYPE":0,"CLASSIFICATION_TYPE":"U","NORAD_CAT_ID":28521,"ELEMENT_SET_NO":999,"REV_AT_EPOCH":6958,"BSTAR":8.2623697e-5,"MEAN_MOTION_DOT":1.14e-6,"MEAN_MOTION_DDOT":0},{"OBJECT_NAME":"COSMOS 2429","OBJECT_ID":"2007-038A","EPOCH":"2026-03-06T19:56:53.435328","MEAN_MOTION":13.75157911,"ECCENTRICITY":0.0038779,"INCLINATION":82.9771,"RA_OF_ASC_NODE":281.3294,"ARG_OF_PERICENTER":159.4933,"MEAN_ANOMALY":200.7791,"EPHEMERIS_TYPE":0,"CLASSIFICATION_TYPE":"U","NORAD_CAT_ID":32052,"ELEMENT_SET_NO":999,"REV_AT_EPOCH":92758,"BSTAR":4.9306e-5,"MEAN_MOTION_DOT":6.3e-7,"MEAN_MOTION_DDOT":0},{"OBJECT_NAME":"COSMOS 2454","OBJECT_ID":"2009-039A","EPOCH":"2026-03-06T04:22:54.568992","MEAN_MOTION":13.89940793,"ECCENTRICITY":0.00189543,"INCLINATION":82.9531,"RA_OF_ASC_NODE":105.3928,"ARG_OF_PERICENTER":189.5591,"MEAN_ANOMALY":232.224,"EPHEMERIS_TYPE":0,"CLASSIFICATION_TYPE":"U","NORAD_CAT_ID":35635,"ELEMENT_SET_NO":999,"REV_AT_EPOCH":84309,"BSTAR":5.6225091e-5,"MEAN_MOTION_DOT":8.5e-7,"MEAN_MOTION_DDOT":0},{"OBJECT_NAME":"COSMOS 2463","OBJECT_ID":"2010-017A","EPOCH":"2026-03-06T06:37:38.623872","MEAN_MOTION":13.71657616,"ECCENTRICITY":0.00373134,"INCLINATION":82.9636,"RA_OF_ASC_NODE":325.3388,"ARG_OF_PERICENTER":56.7201,"MEAN_ANOMALY":62.6131,"EPHEMERIS_TYPE":0,"CLASSIFICATION_TYPE":"U","NORAD_CAT_ID":36519,"ELEMENT_SET_NO":999,"REV_AT_EPOCH":79382,"BSTAR":7.2199205e-5,"MEAN_MOTION_DOT":8.1e-7,"MEAN_MOTION_DDOT":0}]
